{
  "type": "FeatureCollection",
  "features": [
    {
      "type": "Feature",
      "properties": {
        "norad_id": 36278,
        "name": "FENGYUN 1C DEB",
        "group": "fengyun-1c-debris",
        "lat": 9.24903943611686,
        "lon": -102.11768022891971,
        "alt_km": 815.5250047065811,
        "timestamp": "2025-12-07T05:38:10.192392+00:00",
        "meta_object_name": "FENGYUN 1C DEB",
        "meta_object_id": "1999-025DXF",
        "meta_epoch": "2025-12-04T01:21:08.443872",
        "meta_mean_motion": 14.17353569,
        "meta_eccentricity": 0.00613363,
        "meta_inclination": 99.1236,
        "meta_ra_of_asc_node": 256.1206,
        "meta_arg_of_pericenter": 315.5831,
        "meta_mean_anomaly": 44.0433,
        "meta_ephemeris_type": 0,
        "meta_classification_type": "U",
        "meta_norad_cat_id": 36278,
        "meta_element_set_no": 999,
        "meta_rev_at_epoch": 93353,
        "meta_bstar": 0.0008477729,
        "meta_mean_motion_dot": 1.7e-05,
        "meta_mean_motion_ddot": 0,
        "tle_line1": "1 36278U 99025DXF 25338.05634773  .00001700  00000+0  84777-3 0  9990",
        "tle_line2": "2 36278  99.1236 256.1206 0061336 315.5831  44.0433 14.17353569933530"
      },
      "geometry": {
        "type": "Point",
        "coordinates": [
          -102.11768022891971,
          9.24903943611686
        ]
      }
    },
    {
      "type": "Feature",
      "properties": {
        "norad_id": 36279,
        "name": "FENGYUN 1C DEB",
        "group": "fengyun-1c-debris",
        "lat": 80.48249039650271,
        "lon": -104.47753603712246,
        "alt_km": 791.9822611963818,
        "timestamp": "2025-12-07T05:38:10.192402+00:00",
        "meta_object_name": "FENGYUN 1C DEB",
        "meta_object_id": "1999-025DXG",
        "meta_epoch": "2025-11-25T16:33:32.008320",
        "meta_mean_motion": 14.14714647,
        "meta_eccentricity": 0.00629921,
        "meta_inclination": 98.56,
        "meta_ra_of_asc_node": 308.3956,
        "meta_arg_of_pericenter": 103.3746,
        "meta_mean_anomaly": 257.4461,
        "meta_ephemeris_type": 0,
        "meta_classification_type": "U",
        "meta_norad_cat_id": 36279,
        "meta_element_set_no": 999,
        "meta_rev_at_epoch": 88798,
        "meta_bstar": 0.00016006279,
        "meta_mean_motion_dot": 2.73e-06,
        "meta_mean_motion_ddot": 0,
        "tle_line1": "1 36279U 99025DXG 25329.68995380  .00000273  00000+0  16006-3 0  9998",
        "tle_line2": "2 36279  98.5600 308.3956 0062992 103.3746 257.4461 14.14714647887981"
      },
      "geometry": {
        "type": "Point",
        "coordinates": [
          -104.47753603712246,
          80.48249039650271
        ]
      }
    },
    {
      "type": "Feature",
      "properties": {
        "norad_id": 36280,
        "name": "FENGYUN 1C DEB",
        "group": "fengyun-1c-debris",
        "lat": -42.538321207166504,
        "lon": -177.7699062405296,
        "alt_km": 903.2428803249695,
        "timestamp": "2025-12-07T05:38:10.192412+00:00",
        "meta_object_name": "FENGYUN 1C DEB",
        "meta_object_id": "1999-025DXH",
        "meta_epoch": "2025-12-02T19:47:23.057952",
        "meta_mean_motion": 14.09689517,
        "meta_eccentricity": 0.00636593,
        "meta_inclination": 98.7683,
        "meta_ra_of_asc_node": 6.0758,
        "meta_arg_of_pericenter": 93.3379,
        "meta_mean_anomaly": 80.0221,
        "meta_ephemeris_type": 0,
        "meta_classification_type": "U",
        "meta_norad_cat_id": 36280,
        "meta_element_set_no": 999,
        "meta_rev_at_epoch": 86214,
        "meta_bstar": 0.0011452484,
        "meta_mean_motion_dot": 2.005e-05,
        "meta_mean_motion_ddot": 0,
        "tle_line1": "1 36280U 99025DXH 25336.82457243  .00002005  00000+0  11452-2 0  9999",
        "tle_line2": "2 36280  98.7683   6.0758 0063659  93.3379  80.0221 14.09689517862145"
      },
      "geometry": {
        "type": "Point",
        "coordinates": [
          -177.7699062405296,
          -42.538321207166504
        ]
      }
    },
    {
      "type": "Feature",
      "properties": {
        "norad_id": 36281,
        "name": "FENGYUN 1C DEB",
        "group": "fengyun-1c-debris",
        "lat": 58.60900069167956,
        "lon": -112.03534342553023,
        "alt_km": 934.2714971412461,
        "timestamp": "2025-12-07T05:38:10.192422+00:00",
        "meta_object_name": "FENGYUN 1C DEB",
        "meta_object_id": "1999-025DXJ",
        "meta_epoch": "2025-12-06T01:05:43.056672",
        "meta_mean_motion": 13.60197188,
        "meta_eccentricity": 0.02892298,
        "meta_inclination": 99.2583,
        "meta_ra_of_asc_node": 262.3422,
        "meta_arg_of_pericenter": 128.1928,
        "meta_mean_anomaly": 234.5643,
        "meta_ephemeris_type": 0,
        "meta_classification_type": "U",
        "meta_norad_cat_id": 36281,
        "meta_element_set_no": 999,
        "meta_rev_at_epoch": 84426,
        "meta_bstar": 0.003926612,
        "meta_mean_motion_dot": 3.837e-05,
        "meta_mean_motion_ddot": 0,
        "tle_line1": "1 36281U 99025DXJ 25340.04563723  .00003837  00000+0  39266-2 0  9997",
        "tle_line2": "2 36281  99.2583 262.3422 0289229 128.1928 234.5643 13.60197188844267"
      },
      "geometry": {
        "type": "Point",
        "coordinates": [
          -112.03534342553023,
          58.60900069167956
        ]
      }
    },
    {
      "type": "Feature",
      "properties": {
        "norad_id": 36283,
        "name": "FENGYUN 1C DEB",
        "group": "fengyun-1c-debris",
        "lat": -63.905897457925285,
        "lon": 105.30173096831616,
        "alt_km": 604.7414549557207,
        "timestamp": "2025-12-07T05:38:10.192432+00:00",
        "meta_object_name": "FENGYUN 1C DEB",
        "meta_object_id": "1999-025DXL",
        "meta_epoch": "2025-11-28T03:35:45.168576",
        "meta_mean_motion": 15.05092252,
        "meta_eccentricity": 0.00695379,
        "meta_inclination": 99.4205,
        "meta_ra_of_asc_node": 294.0447,
        "meta_arg_of_pericenter": 95.6406,
        "meta_mean_anomaly": 265.275,
        "meta_ephemeris_type": 0,
        "meta_classification_type": "U",
        "meta_norad_cat_id": 36283,
        "meta_element_set_no": 999,
        "meta_rev_at_epoch": 66446,
        "meta_bstar": 0.0018499593,
        "meta_mean_motion_dot": 0.00027782,
        "meta_mean_motion_ddot": 0,
        "tle_line1": "1 36283U 99025DXL 25332.14982834  .00027782  00000+0  18500-2 0  9992",
        "tle_line2": "2 36283  99.4205 294.0447 0069537  95.6406 265.2750 15.05092252664467"
      },
      "geometry": {
        "type": "Point",
        "coordinates": [
          105.30173096831616,
          -63.905897457925285
        ]
      }
    },
    {
      "type": "Feature",
      "properties": {
        "norad_id": 36644,
        "name": "FENGYUN 1C DEB",
        "group": "fengyun-1c-debris",
        "lat": -80.89394000948086,
        "lon": -171.8122601145871,
        "alt_km": 999.137318001387,
        "timestamp": "2025-12-07T05:38:10.192442+00:00",
        "meta_object_name": "FENGYUN 1C DEB",
        "meta_object_id": "1999-025DXN",
        "meta_epoch": "2025-12-06T15:56:19.275936",
        "meta_mean_motion": 13.59167664,
        "meta_eccentricity": 0.02857814,
        "meta_inclination": 98.4234,
        "meta_ra_of_asc_node": 120.1104,
        "meta_arg_of_pericenter": 196.1478,
        "meta_mean_anomaly": 163.0413,
        "meta_ephemeris_type": 0,
        "meta_classification_type": "U",
        "meta_norad_cat_id": 36644,
        "meta_element_set_no": 999,
        "meta_rev_at_epoch": 61485,
        "meta_bstar": 0.0026178612,
        "meta_mean_motion_dot": 2.485e-05,
        "meta_mean_motion_ddot": 0,
        "tle_line1": "1 36644U 99025DXN 25340.66411199  .00002485  00000+0  26179-2 0  9994",
        "tle_line2": "2 36644  98.4234 120.1104 0285781 196.1478 163.0413 13.59167664614851"
      },
      "geometry": {
        "type": "Point",
        "coordinates": [
          -171.8122601145871,
          -80.89394000948086
        ]
      }
    },
    {
      "type": "Feature",
      "properties": {
        "norad_id": 36647,
        "name": "FENGYUN 1C DEB",
        "group": "fengyun-1c-debris",
        "lat": -20.837209096966816,
        "lon": -58.544857073962376,
        "alt_km": 1009.1698161654012,
        "timestamp": "2025-12-07T05:38:10.192452+00:00",
        "meta_object_name": "FENGYUN 1C DEB",
        "meta_object_id": "1999-025DXR",
        "meta_epoch": "2025-12-03T15:55:19.418880",
        "meta_mean_motion": 13.88719058,
        "meta_eccentricity": 0.02386151,
        "meta_inclination": 96.1217,
        "meta_ra_of_asc_node": 121.4438,
        "meta_arg_of_pericenter": 326.4952,
        "meta_mean_anomaly": 32.131,
        "meta_ephemeris_type": 0,
        "meta_classification_type": "U",
        "meta_norad_cat_id": 36647,
        "meta_element_set_no": 999,
        "meta_rev_at_epoch": 30286,
        "meta_bstar": 0.00299282,
        "meta_mean_motion_dot": 4.507e-05,
        "meta_mean_motion_ddot": 0,
        "tle_line1": "1 36647U 99025DXR 25337.66341920  .00004507  00000+0  29928-2 0  9999",
        "tle_line2": "2 36647  96.1217 121.4438 0238615 326.4952  32.1310 13.88719058302862"
      },
      "geometry": {
        "type": "Point",
        "coordinates": [
          -58.544857073962376,
          -20.837209096966816
        ]
      }
    }
  ]
}